STARLINK-32747          
1 62600U 25008P   26100.29125393  .00015366  00000+0  56634-3 0  9999
2 62600  42.9981  99.7851 0000740 133.4553 226.6360 15.27602785 70390
STARLINK-32767          
1 62601U 25008Q   26100.05911801  .00018139  00000+0  66675-3 0  9998
2 62601  43.0041 100.6166 0001859 284.2528  75.8117 15.27594514 70428
STARLINK-32769          
1 62602U 25008R   26100.25912777  .00033286  00000+0  12131-2 0  9991
2 62602  43.0026  99.5309 0001482 265.0629  95.0053 15.27594476 70451
STARLINK-32778          
1 62603U 25008S   26100.30282415  .00028753  00000+0  10505-2 0  9993
2 62603  43.0027  99.8714 0001006 279.1859  80.8879 15.27574989 70397
STARLINK-32710          
1 62604U 25008T   26100.04498024  .00018973  00000+0  69680-3 0  9992
2 62604  43.0054 100.5079 0001335 286.4717  73.5988 15.27599069 70364
STARLINK-32742          
1 62605U 25008U   26100.04883693  .00024849  00000+0  90888-3 0  9996
2 62605  43.0038 100.5395 0002007 298.3374  61.7275 15.27601154 70419
STARLINK-32783          
1 62606U 25008V   26100.26298489  .00027816  00000+0  10162-2 0  9997
2 62606  43.0024  99.5635 0001903 278.7023  81.3613 15.27591164 70396
STARLINK-32784          
1 62607U 25008W   26100.04312088  .00088653  00000+0  23525-2 0  9999
2 62607  42.9973  97.8821 0009940 136.2025 223.9620 15.37261594 70456
BUZZER-1                
1 62609U 25009A   26100.17279265  .00003321  00000+0  15237-3 0  9996
2 62609  97.3938 179.6409 0007075 202.7878 157.3045 15.21104392 68358
EDISON-1                
1 62610U 25009B   26100.20552263  .00012817  00000+0  44306-3 0  9993
2 62610  97.4006 182.8983 0005802 176.2807 183.8478 15.30030886 68555
BALKAN-1                
1 62611U 25009C   26100.21345601  .00007571  00000+0  31388-3 0  9998
2 62611  97.3931 180.3413 0006411 200.3324 159.7659 15.24149450 68401
GESAT GEN1              
1 62612U 25009D   26100.17758939  .00008969  00000+0  33597-3 0  9992
2 62612  97.4023 182.6719 0001870 116.3124 243.8308 15.27505405 68536
FLOCK 4G-8              
1 62613U 25009E   26100.15696845  .00011895  00000+0  43170-3 0  9998
2 62613  97.4013 182.5146 0004534 177.7109 182.4153 15.28463837 68521
TRANSPORTER-12 OBJECT G 
1 62615U 25009G   26100.18469911  .00007256  00000+0  29387-3 0  9995
2 62615  97.3949 180.9404 0005920 194.3504 165.7567 15.24957390 68434
INNOCUBE (TUBSAT-31)    
1 62616U 25009H   26100.15367861  .00008175  00000+0  32478-3 0  9990
2 62616  97.3912 180.9060 0005561 198.4962 161.6075 15.25561427 68440
SCOT-1 (SCOT)           
1 62617U 25009J   26100.17955986  .00057226  00000+0  11275-2 0  9996
2 62617  97.3855 186.3121 0004919 188.9932 171.1231 15.47020862 68810
AE1D                    
1 62618U 25009K   26100.17652858  .00073185  00000+0  12515-2 0  9999
2 62618  97.3964 187.6554 0004259 192.1054 168.0097 15.51015245 68870
IRIS-F3                 
1 62619U 25009L   26100.21470287  .00016137  00000+0  62538-3 0  9994
2 62619  97.4049 181.6261 0006442 188.4352 171.6780 15.26209278 68456
TRANSPORTER-12 OBJECT M 
1 62620U 25009M   26100.20929397  .00074553  00000+0  12471-2 0  9992
2 62620  97.3926 187.7941 0004489 179.1871 180.9389 15.51629782 68884
FLOCK 4G-13             
1 62621U 25009N   26100.20024510  .00062164  00000+0  17228-2 0  9996
2 62621  97.3979 182.6861 0005672 191.8018 168.3094 15.36716292 68538
FLOCK 4G-9              
1 62622U 25009P   26100.20751175  .00009407  00000+0  35840-3 0  9993
2 62622  97.3965 181.7177 0004610 186.8995 173.2181 15.26918866 68489
OTTER                   
1 62623U 25009Q   26100.21818613  .00010687  00000+0  38638-3 0  9996
2 62623  97.4033 182.6906 0005023 174.5974 185.5321 15.28615604 68531
FLOCK 4G-7              
1 62624U 25009R   26100.17785967  .00011256  00000+0  41512-3 0  9995
2 62624  97.3948 181.9533 0003046 170.8163 189.3133 15.27952637 68516
FLOCK 4G-12             
1 62625U 25009S   26100.16552309  .00010852  00000+0  40202-3 0  9993
2 62625  97.4025 182.4094 0004615 174.3701 185.7591 15.27807848 68513
MBZ-SAT                 
1 62626U 25009T   26100.14591595  .00001359  00000+0  69376-4 0  9998
2 62626  97.3990 179.9336 0005637 182.5527 177.5679 15.18358454 68369
RAY 1.0                 
1 62627U 25009U   26100.23792485  .00003692  00000+0  17272-3 0  9999
2 62627  97.3998 179.8069 0009718 145.6712 214.5154 15.20334068 68357
ION SCV-016             
1 62628U 25009V   26100.03749080  .00018729  00000+0  40935-3 0  9990
2 62628  97.4372 145.7197 0597537 320.8488  35.0869 14.48440103 65675
FLOCK 4G-11             
1 62629U 25009W   26100.16028974  .00012098  00000+0  44501-3 0  9993
2 62629  97.3930 182.0637 0003076 173.8169 186.3109 15.28019156 68523
ION SCV-014             
1 62630U 25009X   26100.16709929  .00001977  00000+0  14345-3 0  9998
2 62630  97.4870 175.3753 0005179  26.4526 333.6964 15.05020639 67752
PELICAN-2               
1 62631U 25009Y   26100.23422911  .00043936  00000+0  10835-2 0  9990
2 62631  97.3854 190.9052 0003084 126.0324 234.1208 15.40414196 69094
SIGI                    
1 62632U 25009Z   26100.24909994  .00006836  00000+0  28594-3 0  9993
2 62632  97.4013 181.2914 0003576 163.9013 196.2339 15.23896371 68456
FLOCK 4G-26             
1 62633U 25009AA  26100.18034168  .00011079  00000+0  40726-3 0  9995
2 62633  97.4020 182.5519 0003976 164.5070 195.6292 15.28063184 68526
FLOCK 4G-28             
1 62634U 25009AB  26100.16217243  .00009182  00000+0  28354-3 0  9996
2 62634  97.4020 184.5140 0002458 153.7053 206.4315 15.33768080 68658
GARAI-A                 
1 62635U 25009AC  26100.27727073  .00006952  00000+0  31221-3 0  9995
2 62635  97.4009 181.3737 0002620 175.8185 184.3073 15.21471276 68464
FLOCK 4G-20             
1 62636U 25009AD  26100.18129408  .00079471  00000+0  18424-2 0  9999
2 62636  97.3891 183.2103 0003901 205.6052 154.5003 15.42114773 68606
FLOCK 4G-24             
1 62637U 25009AE  26100.22055685  .00011242  00000+0  40621-3 0  9997
2 62637  97.4028 182.8213 0003919 152.4723 207.6725 15.28623379 68545
FLOCK 4G-3              
1 62639U 25009AG  26100.17886985  .00013912  00000+0  51136-3 0  9997
2 62639  97.4027 182.5674 0003584 157.1675 202.9724 15.28010926 68512
NUSAT-45 (UZMASAT-1)    
1 62640U 25009AH  26100.16945557  .00010485  00000+0  36237-3 0  9996
2 62640  97.3602 182.0121 0002250 168.9541 191.1750 15.30100548 68527
FLOCK 4G-27             
1 62641U 25009AJ  26100.19613046  .00009491  00000+0  34988-3 0  9991
2 62641  97.3938 182.0528 0002797 158.2151 201.9208 15.28013467 68513
FLOCK 4G-29             
1 62642U 25009AK  26100.18809682  .00010106  00000+0  37095-3 0  9991
2 62642  97.4026 182.5319 0003709 154.0526 206.0900 15.28137831 68517
ANSER LEADER-S          
1 62644U 25009AM  26100.18309949  .00031747  00000+0  75934-3 0  9992
2 62644  97.4017 185.6415 0003055 178.7003 181.4253 15.41411031 68718
FLOCK 4G-22             
1 62645U 25009AN  26100.19805147  .00010522  00000+0  38759-3 0  9997
2 62645  97.4012 182.6125 0003220 151.1495 208.9923 15.28010877 68530
FLOCK 4G-25             
1 62646U 25009AP  26100.18399248  .00011592  00000+0  42432-3 0  9998
2 62646  97.4011 182.6405 0002615 156.1895 203.9466 15.28192615 68535
FLOCK 4G-23             
1 62647U 25009AQ  26100.15823049  .00007893  00000+0  29182-3 0  9993
2 62647  97.3952 182.1405 0002251 169.0801 191.0488 15.27977174 68520
LIME                    
1 62648U 25009AR  26100.21529710  .00011009  00000+0  38670-3 0  9995
2 62648  97.3955 182.7837 0001433 173.4606 186.6653 15.29563419 68576
AE1C                    
1 62649U 25009AS  26099.98788767  .00024652  00000+0  58669-3 0  9994
2 62649  97.4005 186.4006 0002804 156.9510 203.1863 15.41614333 68761
FLOCK 4G-34             
1 62650U 25009AT  26100.17560303  .00011964  00000+0  44103-3 0  9994
2 62650  97.3965 182.2135 0002496 153.8590 206.2776 15.27952276 68521
FLOCK 4G-21             
1 62651U 25009AU  26100.20125169  .00011309  00000+0  40073-3 0  9991
2 62651  97.3994 182.9587 0002432 155.8576 204.2779 15.29266517 68561
FLOCK 4G-31             
1 62652U 25009AV  26100.19395471  .00011013  00000+0  40821-3 0  9998
2 62652  97.3973 182.2234 0002068 151.0319 209.1036 15.27794956 68526
PAUSAT-1                
1 62653U 25009AW  26100.25609358  .00004321  00000+0  18636-3 0  9991
2 62653  97.3964 180.8938 0001887 146.3034 213.8323 15.23071596 68447
BRO-16                  
1 62654U 25009AX  26100.17266704  .00005113  00000+0  21795-3 0  9997
2 62654  97.4061 181.5215 0002645 143.0869 217.0550 15.23383059 68444
TRANSPORTER-12 OBJECT AY
1 62655U 25009AY  26100.17841847  .00026464  00000+0  70213-3 0  9996
2 62655  97.4032 185.8319 0002444 135.9516 224.1924 15.38281345 68738
TRANSPORTER-12 OBJECT AZ
1 62656U 25009AZ  26100.21640542  .00013600  00000+0  45104-3 0  9990
2 62656  97.3946 183.4004 0001394 156.2593 203.8713 15.31376651 68616
TRANSPORTER-12 OBJECT BA
1 62657U 25009BA  26100.20966240  .00008916  00000+0  32980-3 0  9998
2 62657  97.3953 182.3964 0002800 132.4657 227.6819 15.27919898 68542
TROLL                   
1 62658U 25009BB  26100.17157003  .00010309  00000+0  36920-3 0  9991
2 62658  97.3895 182.4336 0000665 160.6807 199.4458 15.28946452123059
FLOCK 4G-4              
1 62659U 25009BC  26100.20412181  .00009775  00000+0  36507-3 0  9993
2 62659  97.3959 181.9815 0002686 171.0955 189.0332 15.27575447126120
FLOCK 4G-6              
1 62660U 25009BD  26100.21279070  .00010380  00000+0  37886-3 0  9999
2 62660  97.3950 182.0591 0003297 187.7628 172.3561 15.28314615126113
FLOCK 4G-2              
1 62661U 25009BE  26100.15923232  .00012076  00000+0  43694-3 0  9997
2 62661  97.4011 182.5210 0004150 186.0901 174.0289 15.28560260126138
FLOCK 4G-5              
1 62663U 25009BG  26100.19660294  .00008801  00000+0  31158-3 0  9992
2 62663  97.4028 182.8376 0003765 166.1719 193.9626 15.29366169 68549
